IRIDIUM 166             
1 43570U 18061B   24101.56178870  .00000032  00000+0  42408-5 0  9992
2 43570  86.4013  30.0611 0002428  80.5110 279.6360 14.34217711299076
IRIDIUM 158             
1 43571U 18061C   24101.32076947  .00000141  00000+0  43191-4 0  9999
2 43571  86.4015  30.1708 0002125  80.1634 279.9802 14.34218398299007
IRIDIUM 165             
1 43572U 18061D   24101.55544474  .00000134  00000+0  40806-4 0  9992
2 43572  86.4018  30.1041 0002135  78.0772 282.0663 14.34218374299061
IRIDIUM 155             
1 43573U 18061E   24101.51740745  .00000373  00000+0  12614-3 0  9998
2 43573  86.4012  30.0284 0002391  82.8022 277.3446 14.34219555299023
IRIDIUM 154             
1 43574U 18061F   24101.49837334  .00000361  00000+0  12191-3 0  9994
2 43574  86.4016  30.1307 0002039  89.5180 270.6250 14.34212162299074
IRIDIUM 163             
1 43575U 18061G   24101.54909569  .00000157  00000+0  49109-4 0  9994
2 43575  86.4015  30.0499 0002324  86.1655 273.9807 14.34215695299058
IRIDIUM 156             
1 43576U 18061H   24101.52373271  .00000308  00000+0  10297-3 0  9991
2 43576  86.4014  30.0665 0002278  82.1276 278.0178 14.34218208299045
IRIDIUM 164             
1 43577U 18061J   24101.50470473  .00000103  00000+0  29563-4 0  9992
2 43577  86.4014  30.1025 0001983  83.3371 276.8051 14.34217530299085
